{"fetched_at":"2026-07-13T07:48:18.627Z","source":"https://celestrak.org/NORAD/elements/gp.php?NAME=GLOBAL&FORMAT=JSON","constellation":"blacksky-gen3","records":[{"OBJECT_NAME":"GLOBAL-31","OBJECT_ID":"2025-033B","EPOCH":"2026-07-12T01:43:30.224640","CLASSIFICATION_TYPE":"U","MEAN_MOTION":15.38274151,"ECCENTRICITY":0.00116896,"INCLINATION":58.9963,"RA_OF_ASC_NODE":215.5943,"ARG_OF_PERICENTER":55.2607,"MEAN_ANOMALY":304.9568,"EPHEMERIS_TYPE":0,"NORAD_CAT_ID":63027,"ELEMENT_SET_NO":999,"REV_AT_EPOCH":7815,"BSTAR":0.00017244799,"MEAN_MOTION_DOT":0.0000624,"MEAN_MOTION_DDOT":0},{"OBJECT_NAME":"GLOBAL-32","OBJECT_ID":"2025-118B","EPOCH":"2026-07-12T19:00:42.251616","CLASSIFICATION_TYPE":"U","MEAN_MOTION":15.39249569,"ECCENTRICITY":0.0016303,"INCLINATION":58.9938,"RA_OF_ASC_NODE":28.9068,"ARG_OF_PERICENTER":59.6627,"MEAN_ANOMALY":300.6059,"EPHEMERIS_TYPE":0,"NORAD_CAT_ID":64231,"ELEMENT_SET_NO":999,"REV_AT_EPOCH":6218,"BSTAR":0.00023616,"MEAN_MOTION_DOT":0.00008985,"MEAN_MOTION_DDOT":0},{"OBJECT_NAME":"GLOBAL-33","OBJECT_ID":"2025-267A","EPOCH":"2026-07-12T12:19:19.049088","CLASSIFICATION_TYPE":"U","MEAN_MOTION":15.37191334,"ECCENTRICITY":0.0007969,"INCLINATION":42.0193,"RA_OF_ASC_NODE":268.8871,"ARG_OF_PERICENTER":71.5905,"MEAN_ANOMALY":288.58,"EPHEMERIS_TYPE":0,"NORAD_CAT_ID":66554,"ELEMENT_SET_NO":999,"REV_AT_EPOCH":3594,"BSTAR":0.0001943,"MEAN_MOTION_DOT":0.0000698,"MEAN_MOTION_DDOT":0},{"OBJECT_NAME":"GLOBAL-34","OBJECT_ID":"2026-043A","EPOCH":"2026-07-12T16:45:42.314688","CLASSIFICATION_TYPE":"U","MEAN_MOTION":15.33075521,"ECCENTRICITY":0.000144,"INCLINATION":42.0218,"RA_OF_ASC_NODE":73.2185,"ARG_OF_PERICENTER":112.5945,"MEAN_ANOMALY":247.5045,"EPHEMERIS_TYPE":0,"NORAD_CAT_ID":68098,"ELEMENT_SET_NO":999,"REV_AT_EPOCH":1974,"BSTAR":0.00019185,"MEAN_MOTION_DOT":0.00006014,"MEAN_MOTION_DDOT":0}]}
