GLOBAL-31               
1 63027U 25033B   26193.07187760  .00006240  00000+0  17245-3 0  9991
2 63027  58.9963 215.5943 0011689  55.2607 304.9568 15.38274151 78152
GLOBAL-32               
1 64231U 25118B   26193.79215569  .00008985  00000+0  23616-3 0  9998
2 64231  58.9938  28.9068 0016303  59.6627 300.6059 15.39249569 62184
GLOBAL-33               
1 66554U 25267A   26193.51341492  .00006980  00000+0  19430-3 0  9990
2 66554  42.0193 268.8871 0007969  71.5905 288.5800 15.37191334 35944
GLOBAL-34               
1 68098U 26043A   26193.69840642  .00006014  00000+0  19185-3 0  9993
2 68098  42.0218  73.2185 0001440 112.5945 247.5045 15.33075521 19742
